[{"OBJECT_NAME":"STARLINK-5335","OBJECT_ID":"2023-065F","EPOCH":"2026-03-17T22:00:03.000096","MEAN_MOTION":15.17547904,"ECCENTRICITY":0.00015291,"INCLINATION":43.0017,"RA_OF_ASC_NODE":165.2189,"ARG_OF_PERICENTER":277.5546,"MEAN_ANOMALY":214.2968,"EPHEMERIS_TYPE":0,"CLASSIFICATION_TYPE":"U","NORAD_CAT_ID":56508,"ELEMENT_SET_NO":999,"REV_AT_EPOCH":582,"BSTAR":0.031537299,"MEAN_MOTION_DOT":0.00691021,"MEAN_MOTION_DDOT":0},{"OBJECT_NAME":"STARLINK-5334","OBJECT_ID":"2023-065G","EPOCH":"2026-03-17T22:00:03.000096","MEAN_MOTION":15.17094231,"ECCENTRICITY":0.00013607,"INCLINATION":43.001,"RA_OF_ASC_NODE":165.2839,"ARG_OF_PERICENTER":310.1227,"MEAN_ANOMALY":152.5362,"EPHEMERIS_TYPE":0,"CLASSIFICATION_TYPE":"U","NORAD_CAT_ID":56509,"ELEMENT_SET_NO":999,"REV_AT_EPOCH":582,"BSTAR":0.0020705209,"MEAN_MOTION_DOT":0.00041792,"MEAN_MOTION_DDOT":0},{"OBJECT_NAME":"STARLINK-5339","OBJECT_ID":"2023-065H","EPOCH":"2026-03-17T22:00:03.000096","MEAN_MOTION":15.17986251,"ECCENTRICITY":0.00013049,"INCLINATION":43.0004,"RA_OF_ASC_NODE":164.9661,"ARG_OF_PERICENTER":270.0527,"MEAN_ANOMALY":328.7722,"EPHEMERIS_TYPE":0,"CLASSIFICATION_TYPE":"U","NORAD_CAT_ID":56510,"ELEMENT_SET_NO":999,"REV_AT_EPOCH":582,"BSTAR":-0.00022630736,"MEAN_MOTION_DOT":-4.92e-5,"MEAN_MOTION_DDOT":0},{"OBJECT_NAME":"STARLINK-5351","OBJECT_ID":"2023-065J","EPOCH":"2026-03-17T22:00:03.000096","MEAN_MOTION":15.15689436,"ECCENTRICITY":7.964e-5,"INCLINATION":43.0012,"RA_OF_ASC_NODE":165.1206,"ARG_OF_PERICENTER":308.4387,"MEAN_ANOMALY":222.2031,"EPHEMERIS_TYPE":0,"CLASSIFICATION_TYPE":"U","NORAD_CAT_ID":56511,"ELEMENT_SET_NO":999,"REV_AT_EPOCH":527,"BSTAR":-7.8087142e-5,"MEAN_MOTION_DOT":-1.745e-5,"MEAN_MOTION_DDOT":0},{"OBJECT_NAME":"STARLINK-5349","OBJECT_ID":"2023-065K","EPOCH":"2026-03-17T22:00:03.000096","MEAN_MOTION":15.17736581,"ECCENTRICITY":0.00010182,"INCLINATION":43.0001,"RA_OF_ASC_NODE":164.992,"ARG_OF_PERICENTER":277.5998,"MEAN_ANOMALY":304.9688,"EPHEMERIS_TYPE":0,"CLASSIFICATION_TYPE":"U","NORAD_CAT_ID":56512,"ELEMENT_SET_NO":999,"REV_AT_EPOCH":577,"BSTAR":-0.00022021897,"MEAN_MOTION_DOT":-4.76e-5,"MEAN_MOTION_DDOT":0},{"OBJECT_NAME":"STARLINK-5329","OBJECT_ID":"2023-065L","EPOCH":"2026-03-17T22:00:03.000096","MEAN_MOTION":15.15793099,"ECCENTRICITY":7.217e-5,"INCLINATION":43.0009,"RA_OF_ASC_NODE":165.0813,"ARG_OF_PERICENTER":297.2113,"MEAN_ANOMALY":250.84,"EPHEMERIS_TYPE":0,"CLASSIFICATION_TYPE":"U","NORAD_CAT_ID":56513,"ELEMENT_SET_NO":999,"REV_AT_EPOCH":557,"BSTAR":-0.00017701209,"MEAN_MOTION_DOT":-3.672e-5,"MEAN_MOTION_DDOT":0},{"OBJECT_NAME":"STARLINK-5348","OBJECT_ID":"2023-065N","EPOCH":"2026-03-17T22:00:03.000096","MEAN_MOTION":15.14192013,"ECCENTRICITY":0.00018372,"INCLINATION":43.0015,"RA_OF_ASC_NODE":165.1899,"ARG_OF_PERICENTER":263.5885,"MEAN_ANOMALY":236.1235,"EPHEMERIS_TYPE":0,"CLASSIFICATION_TYPE":"U","NORAD_CAT_ID":56515,"ELEMENT_SET_NO":999,"REV_AT_EPOCH":557,"BSTAR":0.00013941348,"MEAN_MOTION_DOT":2.363e-5,"MEAN_MOTION_DDOT":0},{"OBJECT_NAME":"STARLINK-5342","OBJECT_ID":"2023-065P","EPOCH":"2026-03-17T22:00:03.000096","MEAN_MOTION":15.17074864,"ECCENTRICITY":8.922e-5,"INCLINATION":43.0004,"RA_OF_ASC_NODE":165.0266,"ARG_OF_PERICENTER":283.9173,"MEAN_ANOMALY":287.989,"EPHEMERIS_TYPE":0,"CLASSIFICATION_TYPE":"U","NORAD_CAT_ID":56516,"ELEMENT_SET_NO":999,"REV_AT_EPOCH":562,"BSTAR":-0.00018516756,"MEAN_MOTION_DOT":-3.967e-5,"MEAN_MOTION_DDOT":0},{"OBJECT_NAME":"STARLINK-5345","OBJECT_ID":"2023-065Q","EPOCH":"2026-03-17T22:00:03.000096","MEAN_MOTION":15.12190594,"ECCENTRICITY":0.00021514,"INCLINATION":42.9997,"RA_OF_ASC_NODE":165.3518,"ARG_OF_PERICENTER":282.7315,"MEAN_ANOMALY":147.9571,"EPHEMERIS_TYPE":0,"CLASSIFICATION_TYPE":"U","NORAD_CAT_ID":56517,"ELEMENT_SET_NO":999,"REV_AT_EPOCH":567,"BSTAR":7.7905775e-5,"MEAN_MOTION_DOT":1.145e-5,"MEAN_MOTION_DDOT":0},{"OBJECT_NAME":"STARLINK-5346","OBJECT_ID":"2023-065R","EPOCH":"2026-03-17T22:00:03.000096","MEAN_MOTION":15.14392692,"ECCENTRICITY":0.00014964,"INCLINATION":43.0013,"RA_OF_ASC_NODE":165.1102,"ARG_OF_PERICENTER":276.816,"MEAN_ANOMALY":257.107,"EPHEMERIS_TYPE":0,"CLASSIFICATION_TYPE":"U","NORAD_CAT_ID":56518,"ELEMENT_SET_NO":999,"REV_AT_EPOCH":562,"BSTAR":-2.2217569e-5,"MEAN_MOTION_DOT":-6.44e-6,"MEAN_MOTION_DDOT":0},{"OBJECT_NAME":"STARLINK-6313","OBJECT_ID":"2023-065S","EPOCH":"2026-03-17T22:00:03.000096","MEAN_MOTION":15.12213857,"ECCENTRICITY":0.00020551,"INCLINATION":43.0005,"RA_OF_ASC_NODE":165.2093,"ARG_OF_PERICENTER":269.7314,"MEAN_ANOMALY":218.9292,"EPHEMERIS_TYPE":0,"CLASSIFICATION_TYPE":"U","NORAD_CAT_ID":56519,"ELEMENT_SET_NO":999,"REV_AT_EPOCH":578,"BSTAR":7.2553683e-5,"MEAN_MOTION_DOT":1.052e-5,"MEAN_MOTION_DDOT":0},{"OBJECT_NAME":"STARLINK-6344","OBJECT_ID":"2023-065T","EPOCH":"2026-03-17T22:00:03.000096","MEAN_MOTION":15.13062047,"ECCENTRICITY":0.00018648,"INCLINATION":43.001,"RA_OF_ASC_NODE":165.2062,"ARG_OF_PERICENTER":263.4199,"MEAN_ANOMALY":227.7551,"EPHEMERIS_TYPE":0,"CLASSIFICATION_TYPE":"U","NORAD_CAT_ID":56520,"ELEMENT_SET_NO":999,"REV_AT_EPOCH":577,"BSTAR":0.00010566225,"MEAN_MOTION_DOT":1.677e-5,"MEAN_MOTION_DDOT":0},{"OBJECT_NAME":"STARLINK-6333","OBJECT_ID":"2023-065U","EPOCH":"2026-03-17T23:00:43.389792","MEAN_MOTION":15.0252835,"ECCENTRICITY":0.00010677,"INCLINATION":43.0035,"RA_OF_ASC_NODE":164.9698,"ARG_OF_PERICENTER":275.3538,"MEAN_ANOMALY":84.7183,"EPHEMERIS_TYPE":0,"CLASSIFICATION_TYPE":"U","NORAD_CAT_ID":56521,"ELEMENT_SET_NO":999,"REV_AT_EPOCH":15787,"BSTAR":-0.00012185127,"MEAN_MOTION_DOT":-1.849e-5,"MEAN_MOTION_DDOT":0},{"OBJECT_NAME":"STARLINK-6327","OBJECT_ID":"2023-065V","EPOCH":"2026-03-17T22:00:03.000096","MEAN_MOTION":15.140788,"ECCENTRICITY":5.949e-5,"INCLINATION":43.0008,"RA_OF_ASC_NODE":165.0815,"ARG_OF_PERICENTER":291.8023,"MEAN_ANOMALY":254.3321,"EPHEMERIS_TYPE":0,"CLASSIFICATION_TYPE":"U","NORAD_CAT_ID":56522,"ELEMENT_SET_NO":999,"REV_AT_EPOCH":577,"BSTAR":-0.00020314932,"MEAN_MOTION_DOT":-3.988e-5,"MEAN_MOTION_DDOT":0},{"OBJECT_NAME":"STARLINK-6328","OBJECT_ID":"2023-065W","EPOCH":"2026-03-17T22:00:03.000096","MEAN_MOTION":15.10816041,"ECCENTRICITY":0.00012166,"INCLINATION":43.0009,"RA_OF_ASC_NODE":165.0366,"ARG_OF_PERICENTER":314.7744,"MEAN_ANOMALY":248.5883,"EPHEMERIS_TYPE":0,"CLASSIFICATION_TYPE":"U","NORAD_CAT_ID":56523,"ELEMENT_SET_NO":999,"REV_AT_EPOCH":563,"BSTAR":-9.8242893e-5,"MEAN_MOTION_DOT":-1.881e-5,"MEAN_MOTION_DDOT":0},{"OBJECT_NAME":"STARLINK-6323","OBJECT_ID":"2023-065X","EPOCH":"2026-03-17T22:00:03.000096","MEAN_MOTION":15.11170963,"ECCENTRICITY":0.00010309,"INCLINATION":43.001,"RA_OF_ASC_NODE":165.2131,"ARG_OF_PERICENTER":316.362,"MEAN_ANOMALY":173.4194,"EPHEMERIS_TYPE":0,"CLASSIFICATION_TYPE":"U","NORAD_CAT_ID":56524,"ELEMENT_SET_NO":999,"REV_AT_EPOCH":573,"BSTAR":6.9948973e-5,"MEAN_MOTION_DOT":9.73e-6,"MEAN_MOTION_DDOT":0},{"OBJECT_NAME":"STARLINK-6329","OBJECT_ID":"2023-065Y","EPOCH":"2026-03-17T23:05:30.477120","MEAN_MOTION":15.02533758,"ECCENTRICITY":0.0001412,"INCLINATION":43.002,"RA_OF_ASC_NODE":164.9937,"ARG_OF_PERICENTER":272.5304,"MEAN_ANOMALY":87.5376,"EPHEMERIS_TYPE":0,"CLASSIFICATION_TYPE":"U","NORAD_CAT_ID":56525,"ELEMENT_SET_NO":999,"REV_AT_EPOCH":15787,"BSTAR":1.4263091e-5,"MEAN_MOTION_DOT":-1.1e-7,"MEAN_MOTION_DDOT":0},{"OBJECT_NAME":"STARLINK-6317","OBJECT_ID":"2023-065Z","EPOCH":"2026-03-17T22:00:03.000096","MEAN_MOTION":15.10658041,"ECCENTRICITY":0.00013242,"INCLINATION":43.0012,"RA_OF_ASC_NODE":165.052,"ARG_OF_PERICENTER":307.5406,"MEAN_ANOMALY":249.897,"EPHEMERIS_TYPE":0,"CLASSIFICATION_TYPE":"U","NORAD_CAT_ID":56526,"ELEMENT_SET_NO":999,"REV_AT_EPOCH":578,"BSTAR":-0.00019503927,"MEAN_MOTION_DOT":-3.502e-5,"MEAN_MOTION_DDOT":0},{"OBJECT_NAME":"STARLINK-6335","OBJECT_ID":"2023-065AA","EPOCH":"2026-03-17T22:59:06.800640","MEAN_MOTION":15.02535456,"ECCENTRICITY":0.00013182,"INCLINATION":43.0015,"RA_OF_ASC_NODE":164.9617,"ARG_OF_PERICENTER":279.6579,"MEAN_ANOMALY":80.4115,"EPHEMERIS_TYPE":0,"CLASSIFICATION_TYPE":"U","NORAD_CAT_ID":56527,"ELEMENT_SET_NO":999,"REV_AT_EPOCH":15787,"BSTAR":8.3651511e-5,"MEAN_MOTION_DOT":9.27e-6,"MEAN_MOTION_DDOT":0},{"OBJECT_NAME":"STARLINK-6337","OBJECT_ID":"2023-065AB","EPOCH":"2026-03-17T23:02:18.745152","MEAN_MOTION":15.02534211,"ECCENTRICITY":0.0001367,"INCLINATION":43.0029,"RA_OF_ASC_NODE":164.9833,"ARG_OF_PERICENTER":268.0718,"MEAN_ANOMALY":91.9968,"EPHEMERIS_TYPE":0,"CLASSIFICATION_TYPE":"U","NORAD_CAT_ID":56528,"ELEMENT_SET_NO":999,"REV_AT_EPOCH":15787,"BSTAR":2.8439416e-5,"MEAN_MOTION_DOT":1.81e-6,"MEAN_MOTION_DDOT":0},{"OBJECT_NAME":"STARLINK-6307","OBJECT_ID":"2023-065AC","EPOCH":"2026-03-17T22:00:03.000096","MEAN_MOTION":15.075423,"ECCENTRICITY":0.00017607,"INCLINATION":43.001,"RA_OF_ASC_NODE":152.8299,"ARG_OF_PERICENTER":279.0332,"MEAN_ANOMALY":304.8667,"EPHEMERIS_TYPE":0,"CLASSIFICATION_TYPE":"U","NORAD_CAT_ID":56529,"ELEMENT_SET_NO":999,"REV_AT_EPOCH":572,"BSTAR":-1.764e-9,"MEAN_MOTION_DOT":-2.14e-6,"MEAN_MOTION_DDOT":0},{"OBJECT_NAME":"STARLINK-6318","OBJECT_ID":"2023-065AD","EPOCH":"2026-03-17T22:00:03.000096","MEAN_MOTION":15.13091338,"ECCENTRICITY":0.00023758,"INCLINATION":43.0003,"RA_OF_ASC_NODE":139.3497,"ARG_OF_PERICENTER":266.9429,"MEAN_ANOMALY":153.6601,"EPHEMERIS_TYPE":0,"CLASSIFICATION_TYPE":"U","NORAD_CAT_ID":56530,"ELEMENT_SET_NO":999,"REV_AT_EPOCH":577,"BSTAR":0.00056154486,"MEAN_MOTION_DOT":9.904e-5,"MEAN_MOTION_DDOT":0},{"OBJECT_NAME":"STARLINK-6280","OBJECT_ID":"2023-065AE","EPOCH":"2026-03-17T22:00:03.000096","MEAN_MOTION":15.20657486,"ECCENTRICITY":0.00022606,"INCLINATION":43.0006,"RA_OF_ASC_NODE":151.6455,"ARG_OF_PERICENTER":267.2314,"MEAN_ANOMALY":99.6829,"EPHEMERIS_TYPE":0,"CLASSIFICATION_TYPE":"U","NORAD_CAT_ID":56531,"ELEMENT_SET_NO":999,"REV_AT_EPOCH":572,"BSTAR":0.00018781565,"MEAN_MOTION_DOT":3.961e-5,"MEAN_MOTION_DDOT":0}]
